{"version": 0.6, "generator": "Overpass API 0.7.56.3 eb200aeb", "osm3s": {"timestamp_osm_base": "2020-05-31T00:30:02Z", "copyright": "The data included in this document is from www.openstreetmap.org. The data is made available under ODbL."}, "elements": [{"type": "node", "id": 109762334, "lat": 39.9442567, "lon": -75.1671069}, {"type": "node", "id": 109762339, "lat": 39.94417, "lon": -75.167124}, {"type": "node", "id": 109784610, "lat": 39.9435002, "lon": -75.1601113}, {"type": "node", "id": 109784623, "lat": 39.9434021, "lon": -75.1601328}, {"type": "node", "id": 109784665, "lat": 39.9456, "lon": -75.158016}, {"type": "node", "id": 109784682, "lat": 39.945555, "lon": -75.158027}, {"type": "node", "id": 109784778, "lat": 39.9380151, "lon": -75.1613216}, {"type": "node", "id": 109789207, "lat": 39.9466159, "lon": -75.1594275}, {"type": "node", "id": 109813265, "lat": 39.9525856, "lon": -75.1652317, "tags": {"highway": "traffic_signals"}}, {"type": "node", "id": 109814445, "lat": 39.9513296, "lon": -75.155157, "tags": {"highway": "traffic_signals"}}, {"type": "node", "id": 109814449, "lat": 39.9515258, "lon": -75.1567359, "tags": {"highway": "traffic_signals"}}, {"type": "node", "id": 109837955, "lat": 39.9482085, "lon": -75.1590855}, {"type": "node", "id": 109839795, "lat": 39.946431, "lon": -75.157838}, {"type": "node", "id": 109849538, "lat": 39.950205, "lon": -75.1586398, "tags": {"highway": "traffic_signals"}}, {"type": "node", "id": 109849567, "lat": 39.950856, "lon": -75.163857, "tags": {"highway": "traffic_signals"}}, {"type": "node", "id": 109849577, "lat": 39.950876, "lon": -75.164011, "tags": {"highway": "traffic_signals"}}, {"type": "node", "id": 109860092, "lat": 39.9457558, "lon": -75.1596163}, {"type": "node", "id": 109860554, "lat": 39.9456587, "lon": -75.1596376}, {"type": "node", "id": 109863870, "lat": 39.939381, "lon": -75.1610195, "tags": {"highway": "traffic_signals"}}, {"type": "node", "id": 109899268, "lat": 39.9438069, "lon": -75.1584165, "tags": {"highway": "traffic_signals"}}, {"type": "node", "id": 109899274, "lat": 39.9440036, "lon": -75.1600008, "tags": {"highway": "traffic_signals"}}, {"type": "node", "id": 109911523, "lat": 39.9421316, "lon": -75.160424, "tags": {"highway": "traffic_signals"}}, {"type": "node", "id": 109988421, "lat": 39.94849, "lon": -75.157392, "tags": {"highway": "traffic_signals"}}, {"type": "node", "id": 110000989, "lat": 39.9438557, "lon": -75.1671946, "tags": {"highway": "traffic_signals"}}, {"type": "node", "id": 110122164, "lat": 39.945194, "lon": -75.158112}, {"type": "node", "id": 110122174, "lat": 39.9447023, "lon": -75.1582158, "tags": {"highway": "traffic_signals", "traffic_signals": "traffic_lights", "traffic_signals:direction": "both"}}, {"type": "node", "id": 110122187, "lat": 39.944355, "lon": -75.158288}, {"type": "node", "id": 110122311, "lat": 39.95104, "lon": -75.156844}, {"type": "node", "id": 110122322, "lat": 39.950854, "lon": -75.156879}, {"type": "node", "id": 110122331, "lat": 39.95073, "lon": -75.156906}, {"type": "node", "id": 110122337, "lat": 39.950551, "lon": -75.156944}, {"type": "node", "id": 110122349, "lat": 39.9504424, "lon": -75.1569645}, {"type": "node", "id": 110122358, "lat": 39.949248, "lon": -75.157226}, {"type": "node", "id": 110122388, "lat": 39.9461238, "lon": -75.1579053, "tags": {"highway": "traffic_signals", "traffic_signals": "traffic_lights", "traffic_signals:direction": "both"}}, {"type": "node", "id": 110128963, "lat": 39.9397548, "lon": -75.1609386}, {"type": "node", "id": 110129583, "lat": 39.9388767, "lon": -75.1611288}, {"type": "node", "id": 110139326, "lat": 39.9371821, "lon": -75.1614959, "tags": {"highway": "traffic_signals"}}, {"type": "node", "id": 110139413, "lat": 39.9429897, "lon": -75.1602233, "tags": {"highway": "traffic_signals"}}, {"type": "node", "id": 110139428, "lat": 39.9425528, "lon": -75.1603192}, {"type": "node", "id": 110139477, "lat": 39.9510453, "lon": -75.1584553}, {"type": "node", "id": 110139511, "lat": 39.9494348, "lon": -75.1588088, "tags": {"highway": "traffic_signals"}}, {"type": "node", "id": 110139522, "lat": 39.9480202, "lon": -75.1591193}, {"type": "node", "id": 110139560, "lat": 39.9463214, "lon": -75.1594921, "tags": {"highway": "traffic_signals", "traffic_signals": "traffic_lights", "traffic_signals:direction": "both"}}, {"type": "node", "id": 110139574, "lat": 39.9453905, "lon": -75.1596964}, {"type": "node", "id": 110139587, "lat": 39.9448995, "lon": -75.1598042, "tags": {"highway": "traffic_signals"}}, {"type": "node", "id": 110139597, "lat": 39.9445458, "lon": -75.1598818}, {"type": "node", "id": 110139973, "lat": 39.9411602, "lon": -75.1606341, "tags": {"highway": "traffic_signals"}}, {"type": "node", "id": 110139988, "lat": 39.9401501, "lon": -75.1608529, "tags": {"highway": "traffic_signals"}}, {"type": "node", "id": 110139998, "lat": 39.9383944, "lon": -75.1612333, "tags": {"highway": "traffic_signals"}}, {"type": "node", "id": 110179156, "lat": 39.9525657, "lon": -75.1565078, "tags": {"highway": "traffic_signals"}}, {"type": "node", "id": 110179173, "lat": 39.9527558, "lon": -75.1580843, "tags": {"highway": "traffic_signals"}}, {"type": "node", "id": 110338909, "lat": 39.946971, "lon": -75.16471, "tags": {"highway": "traffic_signals"}}, {"type": "node", "id": 110338911, "lat": 39.946988, "lon": -75.1648466, "tags": {"highway": "traffic_signals"}}, {"type": "node", "id": 110437895, "lat": 39.9530297, "lon": -75.156406}, {"type": "node", "id": 110438856, "lat": 39.9532283, "lon": -75.1579826}, {"type": "node", "id": 1015357517, "lat": 39.952621, "lon": -75.1654923}, {"type": "node", "id": 2091671131, "lat": 39.9452859, "lon": -75.1597194}, {"type": "node", "id": 2644235371, "lat": 39.952109, "lon": -75.1614535, "tags": {"highway": "traffic_signals"}}, {"type": "node", "id": 3268402362, "lat": 39.9490184, "lon": -75.1572763}, {"type": "node", "id": 3404334513, "lat": 39.9486842, "lon": -75.1589735, "tags": {"highway": "traffic_signals"}}, {"type": "node", "id": 3404334514, "lat": 39.946949, "lon": -75.1593544}, {"type": "node", "id": 3404334515, "lat": 39.946748, "lon": -75.157773}, {"type": "node", "id": 3404334550, "lat": 39.9475553, "lon": -75.1592213, "tags": {"highway": "traffic_signals"}}, {"type": "node", "id": 3404334551, "lat": 39.9473601, "lon": -75.1576384, "tags": {"highway": "traffic_signals"}}, {"type": "node", "id": 3409804942, "lat": 39.9526108, "lon": -75.1653973, "tags": {"crossing": "marked", "highway": "crossing"}}, {"type": "node", "id": 3409813345, "lat": 39.9521219, "lon": -75.1615531, "tags": {"crossing": "marked", "highway": "crossing"}}, {"type": "node", "id": 3413741832, "lat": 39.9487612, "lon": -75.1589566, "tags": {"crossing": "marked", "highway": "crossing"}}, {"type": "node", "id": 3413741833, "lat": 39.9486334, "lon": -75.1589847, "tags": {"crossing": "marked", "highway": "crossing"}}, {"type": "node", "id": 3413844239, "lat": 39.9511431, "lon": -75.1536909, "tags": {"crossing": "marked", "highway": "crossing"}}, {"type": "node", "id": 3413844245, "lat": 39.9515392, "lon": -75.1568437, "tags": {"crossing": "marked", "highway": "crossing"}}, {"type": "node", "id": 3413844246, "lat": 39.9515114, "lon": -75.1566201, "tags": {"crossing": "marked", "highway": "crossing"}}, {"type": "node", "id": 3413844247, "lat": 39.951734, "lon": -75.1584077, "tags": {"crossing": "marked", "highway": "crossing"}}, {"type": "node", "id": 3413844248, "lat": 39.9517084, "lon": -75.1582051, "tags": {"crossing": "marked", "highway": "crossing"}}, {"type": "node", "id": 3413844249, "lat": 39.9518399, "lon": -75.1582814, "tags": {"crossing": "marked", "highway": "crossing"}}, {"type": "node", "id": 3413844250, "lat": 39.9516298, "lon": -75.158327, "tags": {"crossing": "marked", "highway": "crossing"}}, {"type": "node", "id": 3413844256, "lat": 39.9519081, "lon": -75.1597833, "tags": {"crossing": "marked", "highway": "crossing"}}, {"type": "node", "id": 3415309316, "lat": 39.9492396, "lon": -75.1572278, "tags": {"highway": "traffic_signals"}}, {"type": "node", "id": 3416621543, "lat": 39.9439312, "lon": -75.1671776, "tags": {"crossing": "marked", "highway": "crossing"}}, {"type": "node", "id": 3417195741, "lat": 39.9476168, "lon": -75.1592077, "tags": {"crossing": "marked", "highway": "crossing"}}, {"type": "node", "id": 3417195742, "lat": 39.947496, "lon": -75.1592343, "tags": {"crossing": "marked", "highway": "crossing"}}, {"type": "node", "id": 3417195745, "lat": 39.9474132, "lon": -75.1576263, "tags": {"crossing": "marked", "highway": "crossing"}}, {"type": "node", "id": 3424291082, "lat": 39.9472986, "lon": -75.157652, "tags": {"crossing": "marked", "highway": "crossing"}}, {"type": "node", "id": 3426140609, "lat": 39.9500102, "lon": -75.1570611, "tags": {"highway": "traffic_signals"}}, {"type": "node", "id": 3426140644, "lat": 39.9516494, "lon": -75.1567088, "tags": {"crossing": "marked", "highway": "crossing"}}, {"type": "node", "id": 3426140645, "lat": 39.9514108, "lon": -75.1567615, "tags": {"crossing": "marked", "highway": "crossing"}}, {"type": "node", "id": 3426140648, "lat": 39.9513416, "lon": -75.1552541, "tags": {"crossing": "marked", "highway": "crossing"}}, {"type": "node", "id": 3426140649, "lat": 39.9513174, "lon": -75.1550596, "tags": {"crossing": "marked", "highway": "crossing"}}, {"type": "node", "id": 3426140679, "lat": 39.9500801, "lon": -75.1570454, "tags": {"crossing": "marked", "highway": "crossing"}}, {"type": "node", "id": 3426140680, "lat": 39.9499365, "lon": -75.157077, "tags": {"crossing": "marked", "highway": "crossing"}}, {"type": "node", "id": 3426140683, "lat": 39.9502697, "lon": -75.1586256, "tags": {"crossing": "marked", "highway": "crossing"}}, {"type": "node", "id": 3426140684, "lat": 39.95014, "lon": -75.158654, "tags": {"crossing": "marked", "highway": "crossing"}}, {"type": "node", "id": 3429431284, "lat": 39.9526903, "lon": -75.1580984, "tags": {"crossing": "marked", "highway": "crossing"}}, {"type": "node", "id": 3429439359, "lat": 39.9528286, "lon": -75.158068}, {"type": "node", "id": 3429659627, "lat": 39.9518608, "lon": -75.1566635}, {"type": "node", "id": 3429659628, "lat": 39.9522976, "lon": -75.1565681}, {"type": "node", "id": 3429659629, "lat": 39.9526411, "lon": -75.1564913, "tags": {"crossing": "marked", "highway": "crossing"}}, {"type": "node", "id": 3429659630, "lat": 39.9525108, "lon": -75.1565202, "tags": {"crossing": "marked", "highway": "crossing"}}, {"type": "node", "id": 3441501251, "lat": 39.9495038, "lon": -75.1587936, "tags": {"crossing": "marked", "highway": "crossing"}}, {"type": "node", "id": 3441501252, "lat": 39.9493653, "lon": -75.158824, "tags": {"crossing": "marked", "highway": "crossing"}}, {"type": "node", "id": 3499206773, "lat": 39.948569, "lon": -75.1573747, "tags": {"crossing": "marked", "highway": "crossing"}}, {"type": "node", "id": 3499206774, "lat": 39.9484163, "lon": -75.1574081, "tags": {"crossing": "marked", "highway": "crossing"}}, {"type": "node", "id": 3499206782, "lat": 39.9491897, "lon": -75.1572387, "tags": {"crossing": "marked", "highway": "crossing"}}, {"type": "node", "id": 3499206785, "lat": 39.9493003, "lon": -75.1572147, "tags": {"crossing": "marked", "highway": "crossing"}}, {"type": "node", "id": 3573747538, "lat": 39.9438662, "lon": -75.1584026, "tags": {"crossing": "marked", "highway": "crossing"}}, {"type": "node", "id": 4148254124, "lat": 39.9384558, "lon": -75.16122, "tags": {"crossing": "marked", "highway": "crossing"}}, {"type": "node", "id": 4148254125, "lat": 39.9383396, "lon": -75.1612452, "tags": {"crossing": "marked", "highway": "crossing"}}, {"type": "node", "id": 4148254133, "lat": 39.9394611, "lon": -75.1610022, "tags": {"crossing": "marked", "highway": "crossing"}}, {"type": "node", "id": 4148254134, "lat": 39.9393142, "lon": -75.161034, "tags": {"crossing": "marked", "highway": "crossing"}}, {"type": "node", "id": 4148254135, "lat": 39.9400825, "lon": -75.1608675, "tags": {"crossing": "marked", "highway": "crossing"}}, {"type": "node", "id": 4148254137, "lat": 39.9402101, "lon": -75.1608399, "tags": {"crossing": "marked", "highway": "crossing"}}, {"type": "node", "id": 4148254147, "lat": 39.9429385, "lon": -75.1602345, "tags": {"crossing": "marked", "highway": "crossing"}}, {"type": "node", "id": 4148254149, "lat": 39.9430593, "lon": -75.160208, "tags": {"crossing": "marked", "highway": "crossing"}}, {"type": "node", "id": 4241833036, "lat": 39.9517859, "lon": -75.158815}, {"type": "node", "id": 4241833037, "lat": 39.9518415, "lon": -75.159251}, {"type": "node", "id": 4241833038, "lat": 39.952667, "lon": -75.1658603}, {"type": "node", "id": 4242028646, "lat": 39.9521785, "lon": -75.1619941}, {"type": "node", "id": 4978720623, "lat": 39.9462679, "lon": -75.1595038, "tags": {"crossing": "marked", "highway": "crossing"}}, {"type": "node", "id": 4978720624, "lat": 39.9463937, "lon": -75.1594762, "tags": {"crossing": "marked", "highway": "crossing"}}, {"type": "node", "id": 5358069713, "lat": 39.9517219, "lon": -75.1583087, "tags": {"highway": "traffic_signals", "traffic_signals": "signal"}}, {"type": "node", "id": 5363699189, "lat": 39.9460813, "lon": -75.1579143, "tags": {"highway": "crossing"}}, {"type": "node", "id": 5363699190, "lat": 39.9461922, "lon": -75.1578903, "tags": {"highway": "crossing"}}, {"type": "node", "id": 5372039288, "lat": 39.9511299, "lon": -75.1535864, "tags": {"highway": "traffic_signals", "traffic_signals": "signal"}}, {"type": "node", "id": 5372059861, "lat": 39.9520938, "lon": -75.1613355, "tags": {"crossing": "marked", "highway": "crossing"}}, {"type": "node", "id": 5372059864, "lat": 39.951922, "lon": -75.1599074, "tags": {"highway": "traffic_signals", "traffic_signals": "signal"}}, {"type": "node", "id": 5534891499, "lat": 39.9522276, "lon": -75.1622664}, {"type": "node", "id": 5559316653, "lat": 39.9374084, "lon": -75.1614485}, {"type": "node", "id": 5559316654, "lat": 39.9376711, "lon": -75.1613936}, {"type": "node", "id": 5559316672, "lat": 39.9395634, "lon": -75.16098}, {"type": "node", "id": 5562135290, "lat": 39.9419038, "lon": -75.160473}, {"type": "node", "id": 6983301818, "lat": 39.9520966, "lon": -75.1613576, "tags": {"crossing": "marked", "highway": "crossing"}}, {"type": "node", "id": 6983628874, "lat": 39.9519278, "lon": -75.1599719, "tags": {"crossing": "marked", "highway": "crossing"}}, {"type": "node", "id": 6985001873, "lat": 39.9528366, "lon": -75.1580663, "tags": {"crossing": "marked", "highway": "crossing"}}, {"type": "node", "id": 7153363482, "lat": 39.9481116, "lon": -75.1591029}, {"type": "node", "id": 7180073269, "lat": 39.9536657, "lon": -75.1578864}, {"type": "node", "id": 7393788824, "lat": 39.9488839, "lon": -75.1573057}, {"type": "node", "id": 7411360352, "lat": 39.9529399, "lon": -75.1564257}, {"type": "node", "id": 7411802691, "lat": 39.9507759, "lon": -75.156896}, {"type": "node", "id": 7411802694, "lat": 39.9506757, "lon": -75.1569175}, {"type": "node", "id": 7419106763, "lat": 39.9491028, "lon": -75.1572578}, {"type": "node", "id": 7419152910, "lat": 39.9497487, "lon": -75.1571177}, {"type": "node", "id": 7419229288, "lat": 39.9433113, "lon": -75.1601527}, {"type": "way", "id": 12111642, "nodes": [109762334, 109762339], "tags": {"bicycle": "yes", "cycleway": "shared_lane", "highway": "tertiary", "name": "South 15th Street", "oneway": "yes", "tiger:cfcc": "A41", "tiger:reviewed": "no"}}, {"type": "way", "id": 12113211, "nodes": [109784665, 109784682], "tags": {"bicycle": "yes", "cycleway": "lane", "highway": "residential", "name": "South 10th Street", "oneway": "yes", "surface": "asphalt"}}, {"type": "way", "id": 12136418, "nodes": [109762339, 3416621543, 110000989], "tags": {"bicycle": "yes", "cycleway": "shared_lane", "highway": "tertiary", "name": "South 15th Street", "oneway": "yes", "tiger:cfcc": "A41"}}, {"type": "way", "id": 12149073, "nodes": [109784682, 110122164, 110122174, 110122187, 3573747538, 109899268], "tags": {"cycleway": "lane", "highway": "residential", "lit": "yes", "name": "South 10th Street", "oneway": "yes", "surface": "asphalt", "tiger:cfcc": "A41", "tiger:name_base": "10th", "tiger:name_direction_prefix": "S", "tiger:name_type": "St", "tiger:reviewed": "no", "tiger:zip_left": "19147", "tiger:zip_right": "19147"}}, {"type": "way", "id": 12149082, "nodes": [109814449, 3426140645, 110122311, 110122322, 7411802691, 110122331, 7411802694, 110122337, 110122349, 3426140679, 3426140609, 3426140680, 7419152910, 3499206785, 110122358, 3415309316, 3499206782, 7419106763, 3268402362, 7393788824, 3499206773, 109988421], "tags": {"bicycle": "yes", "cycleway": "shared", "highway": "residential", "name": "South 10th Street", "oneway": "yes", "sidewalk": "both", "surface": "paved", "tiger:cfcc": "A41", "tiger:name_base": "10th", "tiger:name_direction_prefix": "S", "tiger:name_type": "St", "tiger:zip_left": "19107", "tiger:zip_right": "19107"}}, {"type": "way", "id": 62142084, "nodes": [110139326, 5559316653, 5559316654, 109784778, 4148254125, 110139998, 4148254124, 110129583, 4148254134, 109863870, 4148254133, 5559316672, 110128963, 4148254135, 110139988, 4148254137, 110139973, 5562135290, 109911523], "tags": {"cycleway": "lane", "embedded_rails": "tram", "highway": "residential", "name": "South 11th Street", "oneway": "no", "tiger:cfcc": "A41", "tiger:name_base": "11th", "tiger:name_direction_prefix": "S", "tiger:name_type": "St", "tiger:reviewed": "no", "tiger:zip_left": "19147", "tiger:zip_right": "19147"}}, {"type": "way", "id": 62202575, "nodes": [2644235371, 3409813345, 4242028646], "tags": {"cycleway": "share_busway", "highway": "primary", "lanes": "3", "lanes:backward": "2", "lanes:forward": "1", "name": "Market Street", "ref:penndot": "SR2004", "surface": "asphalt", "tiger:cfcc": "A31", "tiger:name_base": "Market", "tiger:name_base_1": "State Route 3", "tiger:name_type": "St", "tiger:zip_left": "19107", "tiger:zip_right": "19107", "turn:lanes:backward": "through|"}}, {"type": "way", "id": 170020500, "nodes": [109911523, 110139428, 4148254147, 110139413, 4148254149, 7419229288, 109784623, 109784610, 109899274, 110139597, 110139587, 2091671131, 110139574, 109860554, 109860092, 4978720623, 110139560, 4978720624, 109789207, 3404334514, 3417195742, 3404334550], "tags": {"abandoned:railway": "tram", "bicycle": "yes", "cycleway": "no", "highway": "residential", "name": "South 11th Street", "oneway": "yes", "service": "disused_tram", "sidewalk": "both", "tiger:cfcc": "A41", "tiger:name_base": "11th", "tiger:name_direction_prefix": "S", "tiger:name_type": "St", "tiger:reviewed": "no", "tiger:zip_left": "19147", "tiger:zip_right": "19147"}}, {"type": "way", "id": 320334299, "nodes": [109988421, 3499206774, 3417195745, 3404334551, 3424291082, 3404334515, 109839795, 5363699190, 110122388, 5363699189, 109784665], "tags": {"bicycle": "yes", "cycleway": "lane", "highway": "residential", "name": "South 10th Street", "oneway": "yes", "surface": "asphalt"}}, {"type": "way", "id": 333931865, "nodes": [1015357517, 3409804942, 109813265], "tags": {"bicycle": "yes", "cycleway": "no", "foot": "yes", "highway": "primary", "lanes": "4", "name": "Market Street", "oneway": "yes", "ref": "PA 3", "ref:penndot": "SR 3010", "surface": "asphalt", "tiger:cfcc": "A41", "tiger:name_base": "Market", "tiger:name_type": "St", "tiger:reviewed": "yes", "tiger:zip_left": "19139", "tiger:zip_right": "19139", "turn:lanes": "right|right|right|right"}}, {"type": "way", "id": 335828093, "nodes": [3429439359, 6985001873, 110438856, 7180073269], "tags": {"abandoned:railway": "tram", "bicycle": "yes", "covered": "yes", "cycleway": "no", "highway": "tertiary", "name": "North 11th Street", "oneway": "yes", "service": "disused_tram", "surface": "asphalt", "tiger:cfcc": "A41", "tiger:name_base": "11th", "tiger:name_direction_prefix": "N", "tiger:name_type": "St", "tiger:reviewed": "no"}}, {"type": "way", "id": 335853589, "nodes": [3429659628, 3429659627], "tags": {"bicycle": "designated", "covered": "yes", "cycleway": "no", "highway": "residential", "name": "North 10th Street", "oneway": "yes", "surface": "asphalt", "tiger:cfcc": "A41", "tiger:name_base": "10th", "tiger:name_direction_prefix": "N", "tiger:name_type": "St", "tiger:reviewed": "no", "tiger:zip_left": "19107;19133", "tiger:zip_right": "19107;19133"}}, {"type": "way", "id": 335853590, "nodes": [3429659627, 3426140644, 109814449], "tags": {"bicycle": "designated", "cycleway": "no", "highway": "residential", "name": "North 10th Street", "oneway": "yes", "tiger:cfcc": "A41", "tiger:name_base": "10th", "tiger:name_direction_prefix": "N", "tiger:name_type": "St", "tiger:reviewed": "no", "tiger:zip_left": "19107;19133", "tiger:zip_right": "19107;19133"}}, {"type": "way", "id": 424807259, "nodes": [4241833038, 1015357517], "tags": {"bicycle": "yes", "cycleway": "no", "foot": "yes", "highway": "primary", "lanes": "4", "maxspeed": "25 mph", "name": "Market Street", "oneway": "yes", "ref": "PA 3", "ref:penndot": "SR 3010", "surface": "asphalt", "tiger:cfcc": "A41", "tiger:name_base": "Market", "tiger:name_type": "St", "tiger:reviewed": "yes", "tiger:zip_left": "19139", "tiger:zip_right": "19139", "turn:lanes": "right|right|right|right"}}, {"type": "way", "id": 424807260, "nodes": [4241833036, 4241833037], "tags": {"cycleway": "share_busway", "highway": "primary", "name": "Market Street", "ref:penndot": "SR2004", "surface": "asphalt", "tiger:cfcc": "A31", "tiger:name_base": "Market", "tiger:name_base_1": "State Route 3", "tiger:name_type": "St", "tiger:zip_left": "19107", "tiger:zip_right": "19107"}}, {"type": "way", "id": 424807264, "nodes": [4241833037, 3413844256, 5372059864], "tags": {"cycleway": "share_busway", "highway": "primary", "name": "Market Street", "ref:penndot": "SR2004", "surface": "asphalt", "tiger:cfcc": "A31", "tiger:name_base": "Market", "tiger:name_base_1": "State Route 3", "tiger:name_type": "St", "tiger:zip_left": "19107", "tiger:zip_right": "19107", "turn:lanes:forward": "through"}}, {"type": "way", "id": 424829490, "nodes": [4242028646, 5534891499], "tags": {"cycleway": "share_busway", "highway": "primary", "name": "Market Street", "ref:penndot": "SR2004", "tiger:cfcc": "A31", "tiger:name_base": "Market", "tiger:name_base_1": "State Route 3", "tiger:name_type": "St", "tiger:zip_left": "19107", "tiger:zip_right": "19107"}}, {"type": "way", "id": 555331754, "nodes": [5358069713, 3413844247, 4241833036], "tags": {"cycleway": "share_busway", "highway": "primary", "name": "Market Street", "ref:penndot": "SR2004", "surface": "asphalt", "tiger:cfcc": "A31", "tiger:name_base": "Market", "tiger:name_base_1": "State Route 3", "tiger:name_type": "St", "tiger:zip_left": "19107", "tiger:zip_right": "19107", "turn:lanes:backward": "through|"}}, {"type": "way", "id": 555331755, "nodes": [5358069713, 3413844249, 3429431284, 110179173, 3429439359], "tags": {"abandoned:railway": "tram", "bicycle": "yes", "cycleway": "no", "highway": "tertiary", "name": "North 11th Street", "oneway": "yes", "service": "disused_tram", "surface": "asphalt", "tiger:cfcc": "A41", "tiger:name_base": "11th", "tiger:name_direction_prefix": "N", "tiger:name_type": "St", "tiger:reviewed": "no"}}, {"type": "way", "id": 556951995, "nodes": [5372039288, 3413844239, 3426140649, 109814445, 3426140648, 3413844246, 109814449], "tags": {"cycleway": "share_busway", "highway": "primary", "maxspeed": "25 mph", "name": "Market Street", "ref:penndot": "SR 2004", "sidewalk": "both", "tiger:cfcc": "A31", "tiger:name_base": "Market", "tiger:name_base_1": "State Route 3", "tiger:name_type": "St", "tiger:zip_left": "19107", "tiger:zip_right": "19107"}}, {"type": "way", "id": 556954159, "nodes": [5372059864, 6983628874, 5372059861, 6983301818, 2644235371], "tags": {"cycleway": "share_busway", "highway": "primary", "name": "Market Street", "ref:penndot": "SR2004", "surface": "asphalt", "tiger:cfcc": "A31", "tiger:name_base": "Market", "tiger:name_base_1": "State Route 3", "tiger:name_type": "St", "tiger:zip_left": "19107", "tiger:zip_right": "19107"}}, {"type": "way", "id": 584038598, "nodes": [110437895, 7411360352, 3429659629, 110179156, 3429659630, 3429659628], "tags": {"bicycle": "designated", "cycleway": "no", "highway": "residential", "name": "North 10th Street", "oneway": "yes", "tiger:cfcc": "A41", "tiger:name_base": "10th", "tiger:name_direction_prefix": "N", "tiger:name_type": "St", "tiger:reviewed": "no", "tiger:zip_left": "19107;19133", "tiger:zip_right": "19107;19133"}}, {"type": "way", "id": 585010119, "nodes": [109814449, 3413844245, 3413844248, 5358069713], "tags": {"cycleway": "share_busway", "highway": "primary", "lit": "yes", "maxspeed": "25 mph", "name": "Market Street", "ref:penndot": "SR 2004", "sidewalk": "both", "surface": "asphalt", "tiger:cfcc": "A31", "tiger:name_base": "Market", "tiger:name_base_1": "State Route 3", "tiger:name_type": "St", "tiger:zip_left": "19107", "tiger:zip_right": "19107"}}, {"type": "way", "id": 626112967, "nodes": [3404334550, 3417195741, 110139522, 7153363482, 109837955, 3413741833, 3404334513, 3413741832, 3441501252, 110139511, 3441501251, 3426140684, 109849538, 3426140683, 110139477, 3413844250, 5358069713], "tags": {"abandoned:railway": "tram", "bicycle": "yes", "cycleway": "no", "highway": "residential", "lit": "yes", "name": "South 11th Street", "oneway": "yes", "service": "disused_tram", "sidewalk": "both", "surface": "asphalt", "tiger:cfcc": "A41", "tiger:name_base": "11th", "tiger:name_direction_prefix": "S", "tiger:name_type": "St", "tiger:reviewed": "no", "tiger:zip_left": "19147", "tiger:zip_right": "19147"}}, {"type": "way", "id": 626249194, "nodes": [110338909, 110338911], "tags": {"bicycle": "yes", "cycleway": "lane", "highway": "residential", "lanes": "2", "maxspeed": "20 mph", "name": "Spruce Street", "oneway": "yes", "surface": "asphalt", "tiger:cfcc": "A41", "tiger:name_base": "Spruce", "tiger:name_type": "St", "tiger:reviewed": "no", "tiger:zip_left": "19103", "tiger:zip_right": "19103"}}, {"type": "way", "id": 789845374, "nodes": [109849577, 109849567], "tags": {"cycleway": "lane", "highway": "secondary", "maxspeed": "25 mph", "name": "Chestnut Street", "old_ref_legislative": "67318", "oneway": "yes", "ref:penndot": "SR 0003", "tiger:cfcc": "A31", "tiger:name_base": "Chestnut", "tiger:name_type": "St", "tiger:zip_left": "19104", "tiger:zip_right": "19104"}}]}